{
  "type": "FeatureCollection",
  "features": [
    {
      "type": "Feature",
      "properties": {
        "norad_id": 66625,
        "name": "STARLINK-35929",
        "group": "last-30-days",
        "lat": -21.790000411130574,
        "lon": 104.17150420462376,
        "alt_km": 449.97203427781733,
        "timestamp": "2025-12-26T13:39:17.663595+00:00",
        "meta_object_name": "STARLINK-35929",
        "meta_object_id": "2025-271J",
        "meta_epoch": "2025-12-25T17:31:19.322400",
        "meta_mean_motion": 15.39642972,
        "meta_eccentricity": 0.00012607,
        "meta_inclination": 53.1604,
        "meta_ra_of_asc_node": 125.5658,
        "meta_arg_of_pericenter": 46.6548,
        "meta_mean_anomaly": 313.4562,
        "meta_ephemeris_type": 0,
        "meta_classification_type": "U",
        "meta_norad_cat_id": 66625,
        "meta_element_set_no": 999,
        "meta_rev_at_epoch": 621,
        "meta_bstar": 0.0011395573,
        "meta_mean_motion_dot": 0.00045489,
        "meta_mean_motion_ddot": 0,
        "tle_line1": "1 66625U 25271J   25359.73008475  .00045489  00000+0  11396-2 0  9991",
        "tle_line2": "2 66625  53.1604 125.5658 0001260  46.6548 313.4562 15.39642972  6211"
      },
      "geometry": {
        "type": "Point",
        "coordinates": [
          104.17150420462376,
          -21.790000411130574
        ]
      }
    },
    {
      "type": "Feature",
      "properties": {
        "norad_id": 66626,
        "name": "STARLINK-35902",
        "group": "last-30-days",
        "lat": -50.659627668402855,
        "lon": 7.912327553239983,
        "alt_km": 452.8340774241624,
        "timestamp": "2025-12-26T13:39:17.663605+00:00",
        "meta_object_name": "STARLINK-35902",
        "meta_object_id": "2025-271K",
        "meta_epoch": "2025-12-25T17:51:22.930560",
        "meta_mean_motion": 15.39632018,
        "meta_eccentricity": 0.00015641,
        "meta_inclination": 53.1624,
        "meta_ra_of_asc_node": 125.6545,
        "meta_arg_of_pericenter": 52.1551,
        "meta_mean_anomaly": 307.9595,
        "meta_ephemeris_type": 0,
        "meta_classification_type": "U",
        "meta_norad_cat_id": 66626,
        "meta_element_set_no": 999,
        "meta_rev_at_epoch": 621,
        "meta_bstar": 0.00062689035,
        "meta_mean_motion_dot": 0.00024767,
        "meta_mean_motion_ddot": 0,
        "tle_line1": "1 66626U 25271K   25359.74401540  .00024767  00000+0  62689-3 0  9991",
        "tle_line2": "2 66626  53.1624 125.6545 0001564  52.1551 307.9595 15.39632018  6217"
      },
      "geometry": {
        "type": "Point",
        "coordinates": [
          7.912327553239983,
          -50.659627668402855
        ]
      }
    },
    {
      "type": "Feature",
      "properties": {
        "norad_id": 66627,
        "name": "STARLINK-35904",
        "group": "last-30-days",
        "lat": -39.97455346758801,
        "lon": 82.72334851322154,
        "alt_km": 451.8170827553049,
        "timestamp": "2025-12-26T13:39:17.663615+00:00",
        "meta_object_name": "STARLINK-35904",
        "meta_object_id": "2025-271L",
        "meta_epoch": "2025-12-25T17:38:00.621888",
        "meta_mean_motion": 15.3963173,
        "meta_eccentricity": 0.00010582,
        "meta_inclination": 53.1598,
        "meta_ra_of_asc_node": 125.5969,
        "meta_arg_of_pericenter": 72.2559,
        "meta_mean_anomaly": 287.8562,
        "meta_ephemeris_type": 0,
        "meta_classification_type": "U",
        "meta_norad_cat_id": 66627,
        "meta_element_set_no": 999,
        "meta_rev_at_epoch": 617,
        "meta_bstar": 0.0010231914,
        "meta_mean_motion_dot": 0.00040762,
        "meta_mean_motion_ddot": 0,
        "tle_line1": "1 66627U 25271L   25359.73472942  .00040762  00000+0  10232-2 0  9994",
        "tle_line2": "2 66627  53.1598 125.5969 0001058  72.2559 287.8562 15.39631730  6171"
      },
      "geometry": {
        "type": "Point",
        "coordinates": [
          82.72334851322154,
          -39.97455346758801
        ]
      }
    },
    {
      "type": "Feature",
      "properties": {
        "norad_id": 66628,
        "name": "STARLINK-35862",
        "group": "last-30-days",
        "lat": 51.24673856627418,
        "lon": -169.52530959296232,
        "alt_km": 439.53458961420347,
        "timestamp": "2025-12-26T13:39:17.663625+00:00",
        "meta_object_name": "STARLINK-35862",
        "meta_object_id": "2025-271M",
        "meta_epoch": "2025-12-26T06:00:02.999808",
        "meta_mean_motion": 15.39567431,
        "meta_eccentricity": 0.00012425,
        "meta_inclination": 53.1598,
        "meta_ra_of_asc_node": 122.9066,
        "meta_arg_of_pericenter": 89.1511,
        "meta_mean_anomaly": 19.334,
        "meta_ephemeris_type": 0,
        "meta_classification_type": "U",
        "meta_norad_cat_id": 66628,
        "meta_element_set_no": 999,
        "meta_rev_at_epoch": 597,
        "meta_bstar": 0.001827059,
        "meta_mean_motion_dot": 0.00073259,
        "meta_mean_motion_ddot": 0,
        "tle_line1": "1 66628U 25271M   25360.25003472  .00073259  00000+0  18271-2 0  9990",
        "tle_line2": "2 66628  53.1598 122.9066 0001242  89.1511  19.3340 15.39567431  5976"
      },
      "geometry": {
        "type": "Point",
        "coordinates": [
          -169.52530959296232,
          51.24673856627418
        ]
      }
    },
    {
      "type": "Feature",
      "properties": {
        "norad_id": 66629,
        "name": "STARLINK-35956",
        "group": "last-30-days",
        "lat": 10.850886075492628,
        "lon": 129.0938160072018,
        "alt_km": 390.41538153611145,
        "timestamp": "2025-12-26T13:39:17.663635+00:00",
        "meta_object_name": "STARLINK-35956",
        "meta_object_id": "2025-271N",
        "meta_epoch": "2025-12-26T07:25:58.753056",
        "meta_mean_motion": 15.56474492,
        "meta_eccentricity": 0.0009528,
        "meta_inclination": 53.1716,
        "meta_ra_of_asc_node": 122.0881,
        "meta_arg_of_pericenter": 29.3529,
        "meta_mean_anomaly": 330.8017,
        "meta_ephemeris_type": 0,
        "meta_classification_type": "U",
        "meta_norad_cat_id": 66629,
        "meta_element_set_no": 999,
        "meta_rev_at_epoch": 117,
        "meta_bstar": 0.0062340277,
        "meta_mean_motion_dot": 0.00477174,
        "meta_mean_motion_ddot": 0,
        "tle_line1": "1 66629U 25271N   25360.30970779  .00477174  00000+0  62340-2 0  9990",
        "tle_line2": "2 66629  53.1716 122.0881 0009528  29.3529 330.8017 15.56474492  1178"
      },
      "geometry": {
        "type": "Point",
        "coordinates": [
          129.0938160072018,
          10.850886075492628
        ]
      }
    },
    {
      "type": "Feature",
      "properties": {
        "norad_id": 66630,
        "name": "STARLINK-35949",
        "group": "last-30-days",
        "lat": 51.75865997057988,
        "lon": -130.69044189360622,
        "alt_km": 439.88938267137473,
        "timestamp": "2025-12-26T13:39:17.663646+00:00",
        "meta_object_name": "STARLINK-35949",
        "meta_object_id": "2025-271P",
        "meta_epoch": "2025-12-26T06:00:02.999808",
        "meta_mean_motion": 15.39593102,
        "meta_eccentricity": 4.3e-05,
        "meta_inclination": 53.1602,
        "meta_ra_of_asc_node": 122.8578,
        "meta_arg_of_pericenter": 97.9355,
        "meta_mean_anomaly": 34.3932,
        "meta_ephemeris_type": 0,
        "meta_classification_type": "U",
        "meta_norad_cat_id": 66630,
        "meta_element_set_no": 999,
        "meta_rev_at_epoch": 592,
        "meta_bstar": 0.0022426669,
        "meta_mean_motion_dot": 0.00090294,
        "meta_mean_motion_ddot": 0,
        "tle_line1": "1 66630U 25271P   25360.25003472  .00090294  00000+0  22427-2 0  9999",
        "tle_line2": "2 66630  53.1602 122.8578 0000430  97.9355  34.3932 15.39593102  5926"
      },
      "geometry": {
        "type": "Point",
        "coordinates": [
          -130.69044189360622,
          51.75865997057988
        ]
      }
    },
    {
      "type": "Feature",
      "properties": {
        "norad_id": 66631,
        "name": "STARLINK-35965",
        "group": "last-30-days",
        "lat": 51.25758095653895,
        "lon": -127.77736053470568,
        "alt_km": 439.8830824867,
        "timestamp": "2025-12-26T13:39:17.663658+00:00",
        "meta_object_name": "STARLINK-35965",
        "meta_object_id": "2025-271Q",
        "meta_epoch": "2025-12-26T06:00:02.999808",
        "meta_mean_motion": 15.39581766,
        "meta_eccentricity": 5.948e-05,
        "meta_inclination": 53.1599,
        "meta_ra_of_asc_node": 122.8546,
        "meta_arg_of_pericenter": 113.0764,
        "meta_mean_anomaly": 21.146,
        "meta_ephemeris_type": 0,
        "meta_classification_type": "U",
        "meta_norad_cat_id": 66631,
        "meta_element_set_no": 999,
        "meta_rev_at_epoch": 603,
        "meta_bstar": 0.002290027,
        "meta_mean_motion_dot": 0.00092198,
        "meta_mean_motion_ddot": 0,
        "tle_line1": "1 66631U 25271Q   25360.25003472  .00092198  00000+0  22900-2 0  9991",
        "tle_line2": "2 66631  53.1599 122.8546 0000594 113.0764  21.1460 15.39581766  6038"
      },
      "geometry": {
        "type": "Point",
        "coordinates": [
          -127.77736053470568,
          51.25758095653895
        ]
      }
    }
  ]
}